IRIDIUM 166             
1 43570U 18061B   25325.03600111  .00000106  00000+0  30932-4 0  9991
2 43570  86.3965 143.7723 0002100  94.6891 265.4545 14.34217838383562
IRIDIUM 158             
1 43571U 18061C   25325.00428736  .00000094  00000+0  26380-4 0  9998
2 43571  86.3965 143.7956 0001852  85.4923 274.6484 14.34217859383521
IRIDIUM 165             
1 43572U 18061D   25325.02965852  .00000099  00000+0  28423-4 0  9991
2 43572  86.3967 143.8273 0002113  92.6610 267.4827 14.34217662383557
IRIDIUM 155             
1 43573U 18061E   25325.06136851  .00000100  00000+0  28712-4 0  9999
2 43573  86.3960 143.6935 0001809  91.8609 268.2794 14.34216406383528
IRIDIUM 154             
1 43574U 18061F   25325.04234318  .00000096  00000+0  27269-4 0  9995
2 43574  86.3965 143.8246 0002078  89.5129 270.6305 14.34217725383576
IRIDIUM 163             
1 43575U 18061G   25325.02330795  .00000079  00000+0  21232-4 0  9995
2 43575  86.3962 143.7546 0001978  84.5948 275.5474 14.34215234383549
IRIDIUM 156             
1 43576U 18061H   25324.99794433  .00000047  00000+0  96291-5 0  9997
2 43576  86.3964 143.7723 0001845  95.3593 264.7813 14.34217720383536
IRIDIUM 164             
1 43577U 18061J   25325.04869331  .00000103  00000+0  29687-4 0  9992
2 43577  86.3965 143.7880 0002137  93.6619 266.4821 14.34215698383582
